{
    "links": {
        "self": "http://www.neowsapp.com/rest/v1/neo/3840894?api_key=iIulBulltgU6a56xZRHN4H3l9WmuAYTsLGpBGhQ2"
    },
    "id": "3840894",
    "neo_reference_id": "3840894",
    "name": "(2019 GB6)",
    "designation": "2019 GB6",
    "nasa_jpl_url": "http://ssd.jpl.nasa.gov/sbdb.cgi?sstr=3840894",
    "absolute_magnitude_h": 24.7,
    "estimated_diameter": {
        "kilometers": {
            "estimated_diameter_min": 0.0305179233,
            "estimated_diameter_max": 0.0682401509
        },
        "meters": {
            "estimated_diameter_min": 30.5179232594,
            "estimated_diameter_max": 68.2401509401
        },
        "miles": {
            "estimated_diameter_min": 0.0189629525,
            "estimated_diameter_max": 0.0424024508
        },
        "feet": {
            "estimated_diameter_min": 100.1244233463,
            "estimated_diameter_max": 223.8850168104
        }
    },
    "is_potentially_hazardous_asteroid": false,
    "close_approach_data": [
        {
            "close_approach_date": "2019-04-19",
            "close_approach_date_full": "2019-Apr-19 03:51",
            "epoch_date_close_approach": 1555645860000,
            "relative_velocity": {
                "kilometers_per_second": "11.4413494031",
                "kilometers_per_hour": "41188.857851309",
                "miles_per_hour": "25593.154479887"
            },
            "miss_distance": {
                "astronomical": "0.0703828542",
                "lunar": "27.3789302838",
                "kilometers": "10529125.072840554",
                "miles": "6542494.9407414852"
            },
            "orbiting_body": "Earth"
        },
        {
            "close_approach_date": "2170-08-20",
            "close_approach_date_full": "2170-Aug-20 08:42",
            "epoch_date_close_approach": 6331423320000,
            "relative_velocity": {
                "kilometers_per_second": "24.0947891936",
                "kilometers_per_hour": "86741.2410968009",
                "miles_per_hour": "53897.633947065"
            },
            "miss_distance": {
                "astronomical": "0.4758178509",
                "lunar": "185.0931440001",
                "kilometers": "71181337.002617583",
                "miles": "44230031.8395973254"
            },
            "orbiting_body": "Earth"
        },
        {
            "close_approach_date": "2173-03-28",
            "close_approach_date_full": "2173-Mar-28 02:28",
            "epoch_date_close_approach": 6413567280000,
            "relative_velocity": {
                "kilometers_per_second": "22.2115288541",
                "kilometers_per_hour": "79961.5038748288",
                "miles_per_hour": "49684.968893779"
            },
            "miss_distance": {
                "astronomical": "0.4093077846",
                "lunar": "159.2207282094",
                "kilometers": "61231572.750578802",
                "miles": "38047535.0195673876"
            },
            "orbiting_body": "Earth"
        }
    ],
    "orbital_data": {
        "orbit_id": "3",
        "orbit_determination_date": "2019-04-16 07:29:05",
        "first_observation_date": "2019-04-02",
        "last_observation_date": "2019-04-16",
        "data_arc_in_days": 14,
        "observations_used": 28,
        "orbit_uncertainty": "8",
        "minimum_orbit_intersection": ".0413213",
        "jupiter_tisserand_invariant": "3.669",
        "epoch_osculation": "2458580.5",
        "eccentricity": ".5237793119595046",
        "semi_major_axis": "1.987712407744261",
        "inclination": "3.235429762503079",
        "ascending_node_longitude": "155.1122174438846",
        "orbital_period": "1023.596400251261",
        "perihelion_distance": ".946589770442602",
        "perihelion_argument": "96.16025723986051",
        "aphelion_distance": "3.028835045045921",
        "perihelion_time": "2458624.840771731911",
        "mean_anomaly": "344.4053009373913",
        "mean_motion": ".3517011196127997",
        "equinox": "J2000",
        "orbit_class": {
            "orbit_class_type": "APO",
            "orbit_class_description": "Near-Earth asteroid orbits which cross the Earth’s orbit similar to that of 1862 Apollo",
            "orbit_class_range": "a (semi-major axis) > 1.0 AU; q (perihelion) < 1.017 AU"
        }
    },
    "is_sentry_object": false
}